{
  "type": "FeatureCollection",
  "features": [
    {
      "type": "Feature",
      "properties": {
        "norad_id": 38709,
        "name": "EXACTVIEW-1 (ADS-1B)",
        "group": "resource",
        "lat": 29.310587633999738,
        "lon": 86.4712328293384,
        "alt_km": 800.2609820613388,
        "timestamp": "2025-12-09T05:43:20.384645+00:00",
        "meta_object_name": "EXACTVIEW-1 (ADS-1B)",
        "meta_object_id": "2012-039C",
        "meta_epoch": "2025-12-08T19:28:19.351776",
        "meta_mean_motion": 14.2490582,
        "meta_eccentricity": 0.001088,
        "meta_inclination": 98.9636,
        "meta_ra_of_asc_node": 91.119,
        "meta_arg_of_pericenter": 5.6086,
        "meta_mean_anomaly": 354.5212,
        "meta_ephemeris_type": 0,
        "meta_classification_type": "U",
        "meta_norad_cat_id": 38709,
        "meta_element_set_no": 999,
        "meta_rev_at_epoch": 69559,
        "meta_bstar": 0.00017296,
        "meta_mean_motion_dot": 3.58e-06,
        "meta_mean_motion_ddot": 0,
        "tle_line1": "1 38709U 12039C   25342.81133509  .00000358  00000+0  17296-3 0  9991",
        "tle_line2": "2 38709  98.9636  91.1190 0010880   5.6086 354.5212 14.24905820695594"
      },
      "geometry": {
        "type": "Point",
        "coordinates": [
          86.4712328293384,
          29.310587633999738
        ]
      }
    },
    {
      "type": "Feature",
      "properties": {
        "norad_id": 38755,
        "name": "SPOT 6",
        "group": "resource",
        "lat": -5.876438072472975,
        "lon": 48.93322578396021,
        "alt_km": 701.5666948492635,
        "timestamp": "2025-12-09T05:43:20.384656+00:00",
        "meta_object_name": "SPOT 6",
        "meta_object_id": "2012-047A",
        "meta_epoch": "2025-12-08T19:52:16.031712",
        "meta_mean_motion": 14.58597131,
        "meta_eccentricity": 0.0001093,
        "meta_inclination": 98.1576,
        "meta_ra_of_asc_node": 47.6844,
        "meta_arg_of_pericenter": 96.1131,
        "meta_mean_anomaly": 264.0193,
        "meta_ephemeris_type": 0,
        "meta_classification_type": "U",
        "meta_norad_cat_id": 38755,
        "meta_element_set_no": 999,
        "meta_rev_at_epoch": 70530,
        "meta_bstar": 0.00012445,
        "meta_mean_motion_dot": 5.34e-06,
        "meta_mean_motion_ddot": 0,
        "tle_line1": "1 38755U 12047A   25342.82796333  .00000534  00000+0  12445-3 0  9999",
        "tle_line2": "2 38755  98.1576  47.6844 0001093  96.1131 264.0193 14.58597131705307"
      },
      "geometry": {
        "type": "Point",
        "coordinates": [
          48.93322578396021,
          -5.876438072472975
        ]
      }
    },
    {
      "type": "Feature",
      "properties": {
        "norad_id": 39019,
        "name": "PLEIADES 1B",
        "group": "resource",
        "lat": -71.56253220971047,
        "lon": -149.61405578486364,
        "alt_km": 706.0397282515378,
        "timestamp": "2025-12-09T05:43:20.384667+00:00",
        "meta_object_name": "PLEIADES 1B",
        "meta_object_id": "2012-068A",
        "meta_epoch": "2025-12-08T20:19:54.682752",
        "meta_mean_motion": 14.58546648,
        "meta_eccentricity": 0.0001254,
        "meta_inclination": 98.1798,
        "meta_ra_of_asc_node": 55.5604,
        "meta_arg_of_pericenter": 80.67,
        "meta_mean_anomaly": 279.4641,
        "meta_ephemeris_type": 0,
        "meta_classification_type": "U",
        "meta_norad_cat_id": 39019,
        "meta_element_set_no": 999,
        "meta_rev_at_epoch": 69310,
        "meta_bstar": 0.00012821,
        "meta_mean_motion_dot": 5.5e-06,
        "meta_mean_motion_ddot": 0,
        "tle_line1": "1 39019U 12068A   25342.84716068  .00000550  00000+0  12821-3 0  9991",
        "tle_line2": "2 39019  98.1798  55.5604 0001254  80.6700 279.4641 14.58546648693107"
      },
      "geometry": {
        "type": "Point",
        "coordinates": [
          -149.61405578486364,
          -71.56253220971047
        ]
      }
    },
    {
      "type": "Feature",
      "properties": {
        "norad_id": 39030,
        "name": "GOKTURK 2",
        "group": "resource",
        "lat": -75.9687815177591,
        "lon": -27.66059159430022,
        "alt_km": 652.1962168654327,
        "timestamp": "2025-12-09T05:43:20.384677+00:00",
        "meta_object_name": "GOKTURK 2",
        "meta_object_id": "2012-073A",
        "meta_epoch": "2025-12-08T20:24:59.153760",
        "meta_mean_motion": 14.75282552,
        "meta_eccentricity": 9.06e-05,
        "meta_inclination": 97.6889,
        "meta_ra_of_asc_node": 184.6951,
        "meta_arg_of_pericenter": 96.57,
        "meta_mean_anomaly": 263.5613,
        "meta_ephemeris_type": 0,
        "meta_classification_type": "U",
        "meta_norad_cat_id": 39030,
        "meta_element_set_no": 999,
        "meta_rev_at_epoch": 69644,
        "meta_bstar": 0.00015484,
        "meta_mean_motion_dot": 1.001e-05,
        "meta_mean_motion_ddot": 0,
        "tle_line1": "1 39030U 12073A   25342.85068465  .00001001  00000+0  15484-3 0  9992",
        "tle_line2": "2 39030  97.6889 184.6951 0000906  96.5700 263.5613 14.75282552696446"
      },
      "geometry": {
        "type": "Point",
        "coordinates": [
          -27.66059159430022,
          -75.9687815177591
        ]
      }
    },
    {
      "type": "Feature",
      "properties": {
        "norad_id": 39084,
        "name": "LANDSAT 8",
        "group": "resource",
        "lat": 78.20626278228866,
        "lon": 7.6336484445492365,
        "alt_km": 694.4099982714561,
        "timestamp": "2025-12-09T05:43:20.384688+00:00",
        "meta_object_name": "LANDSAT 8",
        "meta_object_id": "2013-008A",
        "meta_epoch": "2025-12-08T19:27:40.654944",
        "meta_mean_motion": 14.57108818,
        "meta_eccentricity": 0.0001124,
        "meta_inclination": 98.2076,
        "meta_ra_of_asc_node": 50.9423,
        "meta_arg_of_pericenter": 86.795,
        "meta_mean_anomaly": 273.3377,
        "meta_ephemeris_type": 0,
        "meta_classification_type": "U",
        "meta_norad_cat_id": 39084,
        "meta_element_set_no": 999,
        "meta_rev_at_epoch": 67017,
        "meta_bstar": 0.00020082,
        "meta_mean_motion_dot": 8.6e-06,
        "meta_mean_motion_ddot": 0,
        "tle_line1": "1 39084U 13008A   25342.81088721  .00000860  00000+0  20082-3 0  9995",
        "tle_line2": "2 39084  98.2076  50.9423 0001124  86.7950 273.3377 14.57108818670170"
      },
      "geometry": {
        "type": "Point",
        "coordinates": [
          7.6336484445492365,
          78.20626278228866
        ]
      }
    },
    {
      "type": "Feature",
      "properties": {
        "norad_id": 39086,
        "name": "SARAL",
        "group": "resource",
        "lat": 13.389317924538291,
        "lon": 165.16204306253607,
        "alt_km": 783.9636041344638,
        "timestamp": "2025-12-09T05:43:20.384699+00:00",
        "meta_object_name": "SARAL",
        "meta_object_id": "2013-009A",
        "meta_epoch": "2025-12-08T19:36:10.683648",
        "meta_mean_motion": 14.32755226,
        "meta_eccentricity": 0.0002787,
        "meta_inclination": 98.5504,
        "meta_ra_of_asc_node": 166.7984,
        "meta_arg_of_pericenter": 116.1399,
        "meta_mean_anomaly": 244.0071,
        "meta_ephemeris_type": 0,
        "meta_classification_type": "U",
        "meta_norad_cat_id": 39086,
        "meta_element_set_no": 999,
        "meta_rev_at_epoch": 66834,
        "meta_bstar": 0.00011695,
        "meta_mean_motion_dot": 2.75e-06,
        "meta_mean_motion_ddot": 0,
        "tle_line1": "1 39086U 13009A   25342.81679032  .00000275  00000+0  11695-3 0  9999",
        "tle_line2": "2 39086  98.5504 166.7984 0002787 116.1399 244.0071 14.32755226668346"
      },
      "geometry": {
        "type": "Point",
        "coordinates": [
          165.16204306253607,
          13.389317924538291
        ]
      }
    },
    {
      "type": "Feature",
      "properties": {
        "norad_id": 39150,
        "name": "GAOFEN-1",
        "group": "resource",
        "lat": -39.07371626354969,
        "lon": 60.46026953990312,
        "alt_km": 659.0488539489934,
        "timestamp": "2025-12-09T05:43:20.384709+00:00",
        "meta_object_name": "GAOFEN-1",
        "meta_object_id": "2013-018A",
        "meta_epoch": "2025-12-08T20:08:34.993824",
        "meta_mean_motion": 14.76524429,
        "meta_eccentricity": 0.0017924,
        "meta_inclination": 97.933,
        "meta_ra_of_asc_node": 53.5675,
        "meta_arg_of_pericenter": 155.0714,
        "meta_mean_anomaly": 205.1366,
        "meta_ephemeris_type": 0,
        "meta_classification_type": "U",
        "meta_norad_cat_id": 39150,
        "meta_element_set_no": 999,
        "meta_rev_at_epoch": 68015,
        "meta_bstar": 0.00023675,
        "meta_mean_motion_dot": 1.603e-05,
        "meta_mean_motion_ddot": 0,
        "tle_line1": "1 39150U 13018A   25342.83929391  .00001603  00000+0  23675-3 0  9996",
        "tle_line2": "2 39150  97.9330  53.5675 0017924 155.0714 205.1366 14.76524429680155"
      },
      "geometry": {
        "type": "Point",
        "coordinates": [
          60.46026953990312,
          -39.07371626354969
        ]
      }
    }
  ]
}